[{"OBJECT_NAME":"COSMOS 2440","OBJECT_ID":"2008-033A","EPOCH":"2026-03-03T23:00:45.211104","MEAN_MOTION":1.00277313,"ECCENTRICITY":0.0004902,"INCLINATION":10.3813,"RA_OF_ASC_NODE":41.9481,"ARG_OF_PERICENTER":222.403,"MEAN_ANOMALY":322.2657,"EPHEMERIS_TYPE":0,"CLASSIFICATION_TYPE":"U","NORAD_CAT_ID":33108,"ELEMENT_SET_NO":999,"REV_AT_EPOCH":6473,"BSTAR":0,"MEAN_MOTION_DOT":-1.53e-6,"MEAN_MOTION_DDOT":0},{"OBJECT_NAME":"SL-12 R/B(2)","OBJECT_ID":"2008-033D","EPOCH":"2026-03-04T00:37:27.010848","MEAN_MOTION":1.00272444,"ECCENTRICITY":0.0031298,"INCLINATION":10.3617,"RA_OF_ASC_NODE":42.0824,"ARG_OF_PERICENTER":335.0556,"MEAN_ANOMALY":213.2263,"EPHEMERIS_TYPE":0,"CLASSIFICATION_TYPE":"U","NORAD_CAT_ID":33111,"ELEMENT_SET_NO":999,"REV_AT_EPOCH":6475,"BSTAR":0,"MEAN_MOTION_DOT":3.3e-7,"MEAN_MOTION_DDOT":0},{"OBJECT_NAME":"INTELSAT 25 (IS-25)","OBJECT_ID":"2008-034A","EPOCH":"2026-03-04T03:37:02.292672","MEAN_MOTION":1.00270469,"ECCENTRICITY":0.0003763,"INCLINATION":2.4368,"RA_OF_ASC_NODE":81.6226,"ARG_OF_PERICENTER":244.3027,"MEAN_ANOMALY":218.7221,"EPHEMERIS_TYPE":0,"CLASSIFICATION_TYPE":"U","NORAD_CAT_ID":33153,"ELEMENT_SET_NO":999,"REV_AT_EPOCH":6464,"BSTAR":0,"MEAN_MOTION_DOT":-2.36e-6,"MEAN_MOTION_DDOT":0},{"OBJECT_NAME":"ECHOSTAR 11","OBJECT_ID":"2008-035A","EPOCH":"2026-03-04T03:14:41.935776","MEAN_MOTION":1.00272164,"ECCENTRICITY":0.0002534,"INCLINATION":0.7333,"RA_OF_ASC_NODE":85.4978,"ARG_OF_PERICENTER":259.3475,"MEAN_ANOMALY":115.7048,"EPHEMERIS_TYPE":0,"CLASSIFICATION_TYPE":"U","NORAD_CAT_ID":33207,"ELEMENT_SET_NO":999,"REV_AT_EPOCH":5016,"BSTAR":0,"MEAN_MOTION_DOT":-6.9e-7,"MEAN_MOTION_DDOT":0},{"OBJECT_NAME":"SUPERBIRD-C2","OBJECT_ID":"2008-038A","EPOCH":"2026-03-03T23:16:51.168288","MEAN_MOTION":1.00270429,"ECCENTRICITY":0.0001113,"INCLINATION":2.0899,"RA_OF_ASC_NODE":82.6201,"ARG_OF_PERICENTER":5.8526,"MEAN_ANOMALY":198.4769,"EPHEMERIS_TYPE":0,"CLASSIFICATION_TYPE":"U","NORAD_CAT_ID":33274,"ELEMENT_SET_NO":999,"REV_AT_EPOCH":10467,"BSTAR":0,"MEAN_MOTION_DOT":-3.19e-6,"MEAN_MOTION_DDOT":0},{"OBJECT_NAME":"INMARSAT 4-F3","OBJECT_ID":"2008-039A","EPOCH":"2026-03-04T01:35:06.484128","MEAN_MOTION":1.00272908,"ECCENTRICITY":0.0002687,"INCLINATION":4.2024,"RA_OF_ASC_NODE":31.1823,"ARG_OF_PERICENTER":318.5805,"MEAN_ANOMALY":97.8389,"EPHEMERIS_TYPE":0,"CLASSIFICATION_TYPE":"U","NORAD_CAT_ID":33278,"ELEMENT_SET_NO":999,"REV_AT_EPOCH":4549,"BSTAR":0,"MEAN_MOTION_DOT":-1.51e-6,"MEAN_MOTION_DDOT":0},{"OBJECT_NAME":"NIMIQ 4","OBJECT_ID":"2008-044A","EPOCH":"2026-03-04T04:10:38.597376","MEAN_MOTION":1.00270314,"ECCENTRICITY":0.0002345,"INCLINATION":0.0281,"RA_OF_ASC_NODE":100.9532,"ARG_OF_PERICENTER":255.8098,"MEAN_ANOMALY":145.8028,"EPHEMERIS_TYPE":0,"CLASSIFICATION_TYPE":"U","NORAD_CAT_ID":33373,"ELEMENT_SET_NO":999,"REV_AT_EPOCH":6393,"BSTAR":0,"MEAN_MOTION_DOT":-2.32e-6,"MEAN_MOTION_DDOT":0},{"OBJECT_NAME":"GALAXY 19 (G-19)","OBJECT_ID":"2008-045A","EPOCH":"2026-03-04T04:27:38.801664","MEAN_MOTION":1.00271869,"ECCENTRICITY":0.0003126,"INCLINATION":0.05,"RA_OF_ASC_NODE":265.0727,"ARG_OF_PERICENTER":91.3335,"MEAN_ANOMALY":135.4222,"EPHEMERIS_TYPE":0,"CLASSIFICATION_TYPE":"U","NORAD_CAT_ID":33376,"ELEMENT_SET_NO":999,"REV_AT_EPOCH":6385,"BSTAR":0,"MEAN_MOTION_DOT":-1.51e-6,"MEAN_MOTION_DDOT":0},{"OBJECT_NAME":"ASTRA 1M","OBJECT_ID":"2008-057A","EPOCH":"2026-03-04T03:51:30.905568","MEAN_MOTION":1.00273826,"ECCENTRICITY":7.83e-5,"INCLINATION":0.0344,"RA_OF_ASC_NODE":60.5809,"ARG_OF_PERICENTER":12.2454,"MEAN_ANOMALY":166.1515,"EPHEMERIS_TYPE":0,"CLASSIFICATION_TYPE":"U","NORAD_CAT_ID":33436,"ELEMENT_SET_NO":999,"REV_AT_EPOCH":4468,"BSTAR":0,"MEAN_MOTION_DOT":1.07e-6,"MEAN_MOTION_DDOT":0},{"OBJECT_NAME":"FENGYUN 2D DEB","OBJECT_ID":"2006-053D","EPOCH":"2026-02-21T11:52:21.573696","MEAN_MOTION":1.00249809,"ECCENTRICITY":0.0038219,"INCLINATION":11.4549,"RA_OF_ASC_NODE":38.1234,"ARG_OF_PERICENTER":346.7634,"MEAN_ANOMALY":12.0826,"EPHEMERIS_TYPE":0,"CLASSIFICATION_TYPE":"U","NORAD_CAT_ID":33458,"ELEMENT_SET_NO":999,"REV_AT_EPOCH":6421,"BSTAR":0,"MEAN_MOTION_DOT":-2.1e-7,"MEAN_MOTION_DDOT":0},{"OBJECT_NAME":"EUTELSAT HOTBIRD 13C","OBJECT_ID":"2008-065A","EPOCH":"2026-03-04T01:55:38.590464","MEAN_MOTION":1.00269118,"ECCENTRICITY":0.0003856,"INCLINATION":2.6804,"RA_OF_ASC_NODE":80.4521,"ARG_OF_PERICENTER":274.7166,"MEAN_ANOMALY":145.2417,"EPHEMERIS_TYPE":0,"CLASSIFICATION_TYPE":"U","NORAD_CAT_ID":33459,"ELEMENT_SET_NO":999,"REV_AT_EPOCH":4629,"BSTAR":0,"MEAN_MOTION_DOT":-2.94e-6,"MEAN_MOTION_DDOT":0},{"OBJECT_NAME":"EXPRESS-AM44","OBJECT_ID":"2009-007A","EPOCH":"2026-03-04T03:42:54.231840","MEAN_MOTION":1.00271886,"ECCENTRICITY":0.0004316,"INCLINATION":3.1937,"RA_OF_ASC_NODE":79.6948,"ARG_OF_PERICENTER":257.4284,"MEAN_ANOMALY":229.497,"EPHEMERIS_TYPE":0,"CLASSIFICATION_TYPE":"U","NORAD_CAT_ID":33595,"ELEMENT_SET_NO":999,"REV_AT_EPOCH":5123,"BSTAR":0,"MEAN_MOTION_DOT":-1.0e-6,"MEAN_MOTION_DDOT":0},{"OBJECT_NAME":"NSS-9","OBJECT_ID":"2009-008A","EPOCH":"2026-03-04T02:55:36.266592","MEAN_MOTION":1.0027292,"ECCENTRICITY":0.0002168,"INCLINATION":0.99,"RA_OF_ASC_NODE":83.7065,"ARG_OF_PERICENTER":253.339,"MEAN_ANOMALY":51.7858,"EPHEMERIS_TYPE":0,"CLASSIFICATION_TYPE":"U","NORAD_CAT_ID":33749,"ELEMENT_SET_NO":999,"REV_AT_EPOCH":6246,"BSTAR":0,"MEAN_MOTION_DOT":5.9e-7,"MEAN_MOTION_DDOT":0},{"OBJECT_NAME":"TELSTAR 11N","OBJECT_ID":"2009-009A","EPOCH":"2026-03-04T01:30:38.672640","MEAN_MOTION":1.00270782,"ECCENTRICITY":0.0002564,"INCLINATION":0.0201,"RA_OF_ASC_NODE":130.4864,"ARG_OF_PERICENTER":202.6375,"MEAN_ANOMALY":173.7861,"EPHEMERIS_TYPE":0,"CLASSIFICATION_TYPE":"U","NORAD_CAT_ID":34111,"ELEMENT_SET_NO":999,"REV_AT_EPOCH":4519,"BSTAR":0,"MEAN_MOTION_DOT":-2.64e-6,"MEAN_MOTION_DDOT":0},{"OBJECT_NAME":"RADUGA-1 8","OBJECT_ID":"2009-010A","EPOCH":"2026-03-03T22:59:52.793952","MEAN_MOTION":0.99814725,"ECCENTRICITY":0.0010353,"INCLINATION":11.9094,"RA_OF_ASC_NODE":42.6895,"ARG_OF_PERICENTER":19.2793,"MEAN_ANOMALY":161.5722,"EPHEMERIS_TYPE":0,"CLASSIFICATION_TYPE":"U","NORAD_CAT_ID":34264,"ELEMENT_SET_NO":999,"REV_AT_EPOCH":6212,"BSTAR":0,"MEAN_MOTION_DOT":-3.2e-7,"MEAN_MOTION_DDOT":0},{"OBJECT_NAME":"SL-12 R/B(2)","OBJECT_ID":"2009-010B","EPOCH":"2026-03-03T20:38:05.849952","MEAN_MOTION":1.00004915,"ECCENTRICITY":0.0003839,"INCLINATION":11.9028,"RA_OF_ASC_NODE":42.6319,"ARG_OF_PERICENTER":293.6613,"MEAN_ANOMALY":74.5645,"EPHEMERIS_TYPE":0,"CLASSIFICATION_TYPE":"U","NORAD_CAT_ID":34265,"ELEMENT_SET_NO":999,"REV_AT_EPOCH":6214,"BSTAR":0,"MEAN_MOTION_DOT":-2.89e-6,"MEAN_MOTION_DDOT":0},{"OBJECT_NAME":"WGS F2 (USA 204)","OBJECT_ID":"2009-017A","EPOCH":"2026-03-04T02:19:47.201376","MEAN_MOTION":1.00270156,"ECCENTRICITY":5.61e-5,"INCLINATION":0.0252,"RA_OF_ASC_NODE":143.0458,"ARG_OF_PERICENTER":229.7643,"MEAN_ANOMALY":241.5071,"EPHEMERIS_TYPE":0,"CLASSIFICATION_TYPE":"U","NORAD_CAT_ID":34713,"ELEMENT_SET_NO":999,"REV_AT_EPOCH":4456,"BSTAR":0,"MEAN_MOTION_DOT":0,"MEAN_MOTION_DDOT":0}]
