COSMOS 2440             
1 33108U 08033A   26062.95885661 -.00000153  00000+0  00000+0 0  9991
2 33108  10.3813  41.9481 0004902 222.4030 322.2657  1.00277313 64739
SL-12 R/B(2)            
1 33111U 08033D   26063.02600707  .00000033  00000+0  00000+0 0  9996
2 33111  10.3617  42.0824 0031298 335.0556 213.2263  1.00272444 64754
INTELSAT 25 (IS-25)     
1 33153U 08034A   26063.15072098 -.00000236  00000+0  00000+0 0  9999
2 33153   2.4368  81.6226 0003763 244.3027 218.7221  1.00270469 64648
ECHOSTAR 11             
1 33207U 08035A   26063.13520759 -.00000069  00000+0  00000+0 0  9994
2 33207   0.7333  85.4978 0002534 259.3475 115.7048  1.00272164 50164
SUPERBIRD-C2            
1 33274U 08038A   26062.97003667 -.00000319  00000+0  00000+0 0  9994
2 33274   2.0899  82.6201 0001113   5.8526 198.4769  1.00270429104677
INMARSAT 4-F3           
1 33278U 08039A   26063.06604727 -.00000151  00000+0  00000+0 0  9998
2 33278   4.2024  31.1823 0002687 318.5805  97.8389  1.00272908 45493
NIMIQ 4                 
1 33373U 08044A   26063.17405784 -.00000232  00000+0  00000+0 0  9994
2 33373   0.0281 100.9532 0002345 255.8098 145.8028  1.00270314 63930
GALAXY 19 (G-19)        
1 33376U 08045A   26063.18586576 -.00000151  00000+0  00000+0 0  9998
2 33376   0.0500 265.0727 0003126  91.3335 135.4222  1.00271869 63859
ASTRA 1M                
1 33436U 08057A   26063.16077437  .00000107  00000+0  00000+0 0  9997
2 33436   0.0344  60.5809 0000783  12.2454 166.1515  1.00273826 44682
FENGYUN 2D DEB          
1 33458U 06053D   26052.49469414 -.00000021  00000+0  00000+0 0  9995
2 33458  11.4549  38.1234 0038219 346.7634  12.0826  1.00249809 64211
EUTELSAT HOTBIRD 13C    
1 33459U 08065A   26063.08030776 -.00000294  00000+0  00000+0 0  9995
2 33459   2.6804  80.4521 0003856 274.7166 145.2417  1.00269118 46294
EXPRESS-AM44            
1 33595U 09007A   26063.15479435 -.00000100  00000+0  00000+0 0  9996
2 33595   3.1937  79.6948 0004316 257.4284 229.4970  1.00271886 51236
NSS-9                   
1 33749U 09008A   26063.12194753  .00000059  00000+0  00000+0 0  9994
2 33749   0.9900  83.7065 0002168 253.3390  51.7858  1.00272920 62462
TELSTAR 11N             
1 34111U 09009A   26063.06294760 -.00000264  00000+0  00000+0 0  9990
2 34111   0.0201 130.4864 0002564 202.6375 173.7861  1.00270782 45192
RADUGA-1 8              
1 34264U 09010A   26062.95824993 -.00000032  00000+0  00000+0 0  9998
2 34264  11.9094  42.6895 0010353  19.2793 161.5722  0.99814725 62122
SL-12 R/B(2)            
1 34265U 09010B   26062.85978993 -.00000289  00000+0  00000+0 0  9992
2 34265  11.9028  42.6319 0003839 293.6613  74.5645  1.00004915 62145
WGS F2 (USA 204)        
1 34713U 09017A   26063.09707409  .00000000  00000+0  00000+0 0  9996
2 34713   0.0252 143.0458 0000561 229.7643 241.5071  1.00270156 44560
